{
  "type": "FeatureCollection",
  "features": [
    {
      "type": "Feature",
      "properties": {
        "norad_id": 40010,
        "name": "KAZEOSAT 2",
        "group": "resource",
        "lat": -8.462344281118511,
        "lon": -156.68020291612018,
        "alt_km": 623.0535774845212,
        "timestamp": "2025-12-24T11:32:59.660904+00:00",
        "meta_object_name": "KAZEOSAT 2",
        "meta_object_id": "2014-033A",
        "meta_epoch": "2025-12-24T03:30:12.721248",
        "meta_mean_motion": 14.85188452,
        "meta_eccentricity": 0.0008611,
        "meta_inclination": 97.5495,
        "meta_ra_of_asc_node": 201.8714,
        "meta_arg_of_pericenter": 166.8706,
        "meta_mean_anomaly": 193.2736,
        "meta_ephemeris_type": 0,
        "meta_classification_type": "U",
        "meta_norad_cat_id": 40010,
        "meta_element_set_no": 999,
        "meta_rev_at_epoch": 62297,
        "meta_bstar": 0.00016373,
        "meta_mean_motion_dot": 1.353e-05,
        "meta_mean_motion_ddot": 0,
        "tle_line1": "1 40010U 14033A   25358.14598057  .00001353  00000+0  16373-3 0  9992",
        "tle_line2": "2 40010  97.5495 201.8714 0008611 166.8706 193.2736 14.85188452622972"
      },
      "geometry": {
        "type": "Point",
        "coordinates": [
          -156.68020291612018,
          -8.462344281118511
        ]
      }
    },
    {
      "type": "Feature",
      "properties": {
        "norad_id": 40011,
        "name": "HODOYOSHI-4",
        "group": "resource",
        "lat": 2.3048821623152014,
        "lon": 7.0915817703891,
        "alt_km": 592.3161212863279,
        "timestamp": "2025-12-24T11:32:59.660915+00:00",
        "meta_object_name": "HODOYOSHI-4",
        "meta_object_id": "2014-033B",
        "meta_epoch": "2025-12-24T04:17:50.108352",
        "meta_mean_motion": 14.87520777,
        "meta_eccentricity": 0.0024017,
        "meta_inclination": 97.541,
        "meta_ra_of_asc_node": 186.4989,
        "meta_arg_of_pericenter": 162.2139,
        "meta_mean_anomaly": 197.9924,
        "meta_ephemeris_type": 0,
        "meta_classification_type": "U",
        "meta_norad_cat_id": 40011,
        "meta_element_set_no": 999,
        "meta_rev_at_epoch": 62278,
        "meta_bstar": 0.00016579,
        "meta_mean_motion_dot": 1.459e-05,
        "meta_mean_motion_ddot": 0,
        "tle_line1": "1 40011U 14033B   25358.17905218  .00001459  00000+0  16579-3 0  9992",
        "tle_line2": "2 40011  97.5410 186.4989 0024017 162.2139 197.9924 14.87520777622781"
      },
      "geometry": {
        "type": "Point",
        "coordinates": [
          7.0915817703891,
          2.3048821623152014
        ]
      }
    },
    {
      "type": "Feature",
      "properties": {
        "norad_id": 40013,
        "name": "DEIMOS-2",
        "group": "resource",
        "lat": -26.589137508724757,
        "lon": 50.05934539004164,
        "alt_km": 594.5244577825852,
        "timestamp": "2025-12-24T11:32:59.660925+00:00",
        "meta_object_name": "DEIMOS-2",
        "meta_object_id": "2014-033D",
        "meta_epoch": "2025-12-24T04:11:34.806624",
        "meta_mean_motion": 14.93018884,
        "meta_eccentricity": 0.0001398,
        "meta_inclination": 97.6056,
        "meta_ra_of_asc_node": 233.5978,
        "meta_arg_of_pericenter": 103.9083,
        "meta_mean_anomaly": 256.2293,
        "meta_ephemeris_type": 0,
        "meta_classification_type": "U",
        "meta_norad_cat_id": 40013,
        "meta_element_set_no": 999,
        "meta_rev_at_epoch": 61160,
        "meta_bstar": 0.00011954,
        "meta_mean_motion_dot": 1.189e-05,
        "meta_mean_motion_ddot": 0,
        "tle_line1": "1 40013U 14033D   25358.17470841  .00001189  00000+0  11954-3 0  9995",
        "tle_line2": "2 40013  97.6056 233.5978 0001398 103.9083 256.2293 14.93018884611604"
      },
      "geometry": {
        "type": "Point",
        "coordinates": [
          50.05934539004164,
          -26.589137508724757
        ]
      }
    },
    {
      "type": "Feature",
      "properties": {
        "norad_id": 40015,
        "name": "HODOYOSHI-3",
        "group": "resource",
        "lat": -9.82077986278505,
        "lon": 165.13413931825758,
        "alt_km": 636.1870879648995,
        "timestamp": "2025-12-24T11:32:59.660936+00:00",
        "meta_object_name": "HODOYOSHI-3",
        "meta_object_id": "2014-033F",
        "meta_epoch": "2025-12-24T03:30:28.806336",
        "meta_mean_motion": 14.84844079,
        "meta_eccentricity": 0.0032458,
        "meta_inclination": 97.6206,
        "meta_ra_of_asc_node": 163.4857,
        "meta_arg_of_pericenter": 209.1747,
        "meta_mean_anomaly": 150.7657,
        "meta_ephemeris_type": 0,
        "meta_classification_type": "U",
        "meta_norad_cat_id": 40015,
        "meta_element_set_no": 999,
        "meta_rev_at_epoch": 62164,
        "meta_bstar": 0.00019209,
        "meta_mean_motion_dot": 1.595e-05,
        "meta_mean_motion_ddot": 0,
        "tle_line1": "1 40015U 14033F   25358.14616674  .00001595  00000+0  19209-3 0  9992",
        "tle_line2": "2 40015  97.6206 163.4857 0032458 209.1747 150.7657 14.84844079621647"
      },
      "geometry": {
        "type": "Point",
        "coordinates": [
          165.13413931825758,
          -9.82077986278505
        ]
      }
    },
    {
      "type": "Feature",
      "properties": {
        "norad_id": 40053,
        "name": "SPOT 7",
        "group": "resource",
        "lat": 42.81245409089243,
        "lon": -112.14367682767879,
        "alt_km": 686.6071284737654,
        "timestamp": "2025-12-24T11:32:59.660968+00:00",
        "meta_object_name": "SPOT 7",
        "meta_object_id": "2014-034A",
        "meta_epoch": "2025-12-24T04:21:03.766176",
        "meta_mean_motion": 14.60747668,
        "meta_eccentricity": 0.0001513,
        "meta_inclination": 98.0889,
        "meta_ra_of_asc_node": 59.9925,
        "meta_arg_of_pericenter": 83.0275,
        "meta_mean_anomaly": 277.1098,
        "meta_ephemeris_type": 0,
        "meta_classification_type": "U",
        "meta_norad_cat_id": 40053,
        "meta_element_set_no": 999,
        "meta_rev_at_epoch": 61158,
        "meta_bstar": 0.0001255,
        "meta_mean_motion_dot": 5.67e-06,
        "meta_mean_motion_ddot": 0,
        "tle_line1": "1 40053U 14034A   25358.18129359  .00000567  00000+0  12550-3 0  9998",
        "tle_line2": "2 40053  98.0889  59.9925 0001513  83.0275 277.1098 14.60747668611584"
      },
      "geometry": {
        "type": "Point",
        "coordinates": [
          -112.14367682767879,
          42.81245409089243
        ]
      }
    },
    {
      "type": "Feature",
      "properties": {
        "norad_id": 40072,
        "name": "SKYSAT-B",
        "group": "resource",
        "lat": 63.778872229409565,
        "lon": 140.18576286189307,
        "alt_km": 595.2046071497889,
        "timestamp": "2025-12-24T11:32:59.660980+00:00",
        "meta_object_name": "SKYSAT-B",
        "meta_object_id": "2014-037D",
        "meta_epoch": "2025-12-23T09:12:08.448768",
        "meta_mean_motion": 14.8736338,
        "meta_eccentricity": 0.00067806,
        "meta_inclination": 98.3626,
        "meta_ra_of_asc_node": 301.6522,
        "meta_arg_of_pericenter": 120.3207,
        "meta_mean_anomaly": 239.8679,
        "meta_ephemeris_type": 0,
        "meta_classification_type": "U",
        "meta_norad_cat_id": 40072,
        "meta_element_set_no": 999,
        "meta_rev_at_epoch": 61982,
        "meta_bstar": 0.00018052931,
        "meta_mean_motion_dot": 1.571e-05,
        "meta_mean_motion_ddot": 0,
        "tle_line1": "1 40072U 14037D   25357.38343112  .00001571  00000+0  18053-3 0  9998",
        "tle_line2": "2 40072  98.3626 301.6522 0006780 120.3207 239.8679 14.87363380619827"
      },
      "geometry": {
        "type": "Point",
        "coordinates": [
          140.18576286189307,
          63.778872229409565
        ]
      }
    },
    {
      "type": "Feature",
      "properties": {
        "norad_id": 40115,
        "name": "WORLDVIEW-3 (WV-3)",
        "group": "resource",
        "lat": -81.81787787092358,
        "lon": 176.29200031960374,
        "alt_km": 623.0108927053652,
        "timestamp": "2025-12-24T11:32:59.660991+00:00",
        "meta_object_name": "WORLDVIEW-3 (WV-3)",
        "meta_object_id": "2014-048A",
        "meta_epoch": "2025-12-24T02:15:35.480160",
        "meta_mean_motion": 14.8467277,
        "meta_eccentricity": 0.0001995,
        "meta_inclination": 97.8765,
        "meta_ra_of_asc_node": 70.2355,
        "meta_arg_of_pericenter": 130.6513,
        "meta_mean_anomaly": 229.4875,
        "meta_ephemeris_type": 0,
        "meta_classification_type": "U",
        "meta_norad_cat_id": 40115,
        "meta_element_set_no": 999,
        "meta_rev_at_epoch": 61592,
        "meta_bstar": 0.0001272,
        "meta_mean_motion_dot": 1.023e-05,
        "meta_mean_motion_ddot": 0,
        "tle_line1": "1 40115U 14048A   25358.09416065  .00001023  00000+0  12720-3 0  9992",
        "tle_line2": "2 40115  97.8765  70.2355 0001995 130.6513 229.4875 14.84672770615926"
      },
      "geometry": {
        "type": "Point",
        "coordinates": [
          176.29200031960374,
          -81.81787787092358
        ]
      }
    }
  ]
}